{
    "links": {
        "self": "http://www.neowsapp.com/rest/v1/neo/3660063?api_key=iIulBulltgU6a56xZRHN4H3l9WmuAYTsLGpBGhQ2"
    },
    "id": "3660063",
    "neo_reference_id": "3660063",
    "name": "(2014 BV43)",
    "designation": "2014 BV43",
    "nasa_jpl_url": "http://ssd.jpl.nasa.gov/sbdb.cgi?sstr=3660063",
    "absolute_magnitude_h": 23.7,
    "estimated_diameter": {
        "kilometers": {
            "estimated_diameter_min": 0.0483676488,
            "estimated_diameter_max": 0.1081533507
        },
        "meters": {
            "estimated_diameter_min": 48.3676488219,
            "estimated_diameter_max": 108.1533506775
        },
        "miles": {
            "estimated_diameter_min": 0.0300542543,
            "estimated_diameter_max": 0.0672033557
        },
        "feet": {
            "estimated_diameter_min": 158.6865169607,
            "estimated_diameter_max": 354.8338390368
        }
    },
    "is_potentially_hazardous_asteroid": false,
    "close_approach_data": [
        {
            "close_approach_date": "2014-01-07",
            "close_approach_date_full": "2014-Jan-07 18:49",
            "epoch_date_close_approach": 1389120540000,
            "relative_velocity": {
                "kilometers_per_second": "7.5641941273",
                "kilometers_per_hour": "27231.0988583067",
                "miles_per_hour": "16920.3458433739"
            },
            "miss_distance": {
                "astronomical": "0.1652633629",
                "lunar": "64.2874481681",
                "kilometers": "24723047.078877023",
                "miles": "15362189.1006399974"
            },
            "orbiting_body": "Earth"
        }
    ],
    "orbital_data": {
        "orbit_id": "4",
        "orbit_determination_date": "2017-04-06 08:42:39",
        "first_observation_date": "2014-01-28",
        "last_observation_date": "2014-01-29",
        "data_arc_in_days": 1,
        "observations_used": 9,
        "orbit_uncertainty": "9",
        "minimum_orbit_intersection": ".153088",
        "jupiter_tisserand_invariant": "4.265",
        "epoch_osculation": "2456686.5",
        "eccentricity": ".3074886464843239",
        "semi_major_axis": "1.607167302890886",
        "inclination": "13.78647962640721",
        "ascending_node_longitude": "117.7639411946963",
        "orbital_period": "744.2006745273715",
        "perihelion_distance": "1.112981604251106",
        "perihelion_argument": "329.0882776610142",
        "aphelion_distance": "2.101353001530666",
        "perihelion_time": "2456640.746417403903",
        "mean_anomaly": "22.13286052858732",
        "mean_motion": ".4837404914052645",
        "equinox": "J2000",
        "orbit_class": {
            "orbit_class_type": "AMO",
            "orbit_class_description": "Near-Earth asteroid orbits similar to that of 1221 Amor",
            "orbit_class_range": "1.017 AU < q (perihelion) < 1.3 AU"
        }
    },
    "is_sentry_object": false
}